DELTA 2 R/B             
1 25876U 99041E   20052.51618524  .00000028  00000-0  45930-4 0  9997
2 25876  51.7654  51.9728 0531279   3.1343 357.2706 14.04393506 52193
HELIOS 1B               
1 25977U 99064A   20052.52096452  .00000046  00000-0  12799-4 0  9992
2 25977  98.2622 203.4442 0001757  48.0940 312.0422 14.82461133357793
TERRA                   
1 25994U 99068A   20052.50132843  .00000777  00000-0  18243-3 0  9998
2 25994  98.2047 128.3641 0001387  92.0664 268.0718 14.57096588 73287
SL-16 R/B               
1 26070U 00006B   20052.42116032 -.00000022  00000-0  13119-4 0  9993
2 26070  71.0002  59.1820 0018555 298.2364  61.6885 14.15459138 36071
TITAN 4B R/B            
1 26474U 00047B   20052.37816804  .00000138  00000-0  22941-4 0  9994
2 26474  67.9942  37.9439 0059002 322.1533  37.5467 14.95915896 61738
ENVISAT                 
1 27386U 02009A   20052.54603913  .00000009  00000-0  16266-4 0  9991
2 27386  98.1398  65.7236 0001203  94.6730  75.5640 14.37971959941747
IDEFIX & ARIANE 42P R/B 
1 27422U 02021B   20052.47679709 -.00000023  00000-0  70976-5 0  9990
2 27422  98.3359  18.4849 0011468 212.4185 147.6295 14.29282068928457
AQUA                    
1 27424U 02022A   20052.61300060  .00000094  00000-0  31057-4 0  9993
2 27424  98.2229 354.9177 0002015  29.5259  95.5085 14.57101003946855
CZ-4B R/B               
1 27432U 02024C   20052.52957911 -.00000023  00000-0  12027-4 0  9996
2 27432  99.0857  52.7492 0051018 145.2837 323.6831 14.14089596917125
MIDORI II (ADEOS-II)    
1 27597U 02056A   20052.47758378  .00000022  00000-0  26227-4 0  9998
2 27597  98.5065   3.0920 0001243  35.2351 324.8912 14.27433031895120
H-2A R/B                
1 27601U 02056E   20052.56540889  .00000064  00000-0  38420-4 0  9994
2 27601  98.2430  94.2552 0070952 265.6109 210.8849 14.31934592897965
CZ-4B R/B               
1 28059U 03049C   20052.36067082  .00000001  00000-0  11952-4 0  9994
2 28059  98.4892 327.5564 0050886 135.6070 224.9222 14.52588611865819
CZ-2C R/B               
1 28222U 04012C   20052.52437858  .00000671  00000-0  43933-4 0  9994
2 28222  97.6618  14.8707 0048745  70.9296  37.9477 15.10292355868342
SL-16 R/B               
1 28353U 04021B   20052.57164252 -.00000323  00000-0 -14442-3 0  9997
2 28353  70.9995 184.4614 0004646 181.5175 178.5934 14.14224436810612
CZ-4B R/B               
1 28415U 04035C   20052.09655581 -.00000115  00000-0 -31241-5 0  9995
2 28415  97.6308  94.8529 0052483  33.9528 326.5039 15.06806939845961
CZ-2C R/B               
1 28480U 04046B   20052.14518973 -.00000021  00000-0  74949-5 0  9995
2 28480  98.0961  96.0850 0141352 211.9627 213.8509 14.25717390793724
ARIANE 5 R/B            
1 28499U 04049H   20052.40845448  .00000025  00000-0  10698-4 0  9990
2 28499  98.0502 153.8633 0090886 291.9061 108.2126 14.80008476818821
CZ-2D R/B               
1 28738U 05024B   20052.50810177  .00000255  00000-0  18532-4 0  9992
2 28738  97.3940  78.8890 0010862 222.0647 137.9750 15.11965231803751
SUZAKU (ASTRO-EII)      
1 28773U 05025A   20052.46497998  .00000922  00000-0  40658-4 0  9994
2 28773  31.3830  57.2823 0004482 111.0660 249.0467 15.17399993806177
ALOS (DAICHI)           
1 28931U 06002A   20052.43838194  .00000082  00000-0  24694-4 0  9999
2 28931  97.8361  43.9622 0002098  80.4917 279.6520 14.62683473750594
H-2A R/B                
1 28932U 06002B   20052.57975512  .00000633  00000-0  64209-4 0  9999
2 28932  98.3125  36.0927 0088493 344.7333 129.1165 14.92149720763718
AKARI (ASTRO-F)         
1 28939U 06005A   20052.49073913  .00004752  00000-0  12890-3 0  9998
2 28939  98.2184  13.3081 0095453  14.2260 346.1633 15.33684912762960
RESURS-DK 1             
1 29228U 06021A   20052.51219617  .00000076  00000-0  13081-4 0  9993
2 29228  69.9357 125.6973 0007864 275.9648  84.0617 15.02511816755185
GENESIS 1               
1 29252U 06029A   20052.21676003  .00000345  00000-0  26932-4 0  9999
2 29252  64.5244 324.9961 0023050 189.0942 170.9767 15.18032152750304
CZ-4B R/B               
1 29507U 06046C   20052.52977617  .00000365  00000-0  33369-4 0  9994
2 29507  97.7456  74.7305 0045508 197.1253 162.8437 15.00485362727831
CZ-2C R/B               
1 31114U 07010B   20052.56233559  .00000044  00000-0  39407-4 0  9990
2 31114  98.2767 273.1825 0058610 247.4635 112.0333 14.19308334666423
COSMO-SKYMED 1          
1 31598U 07023A   20052.48207588  .00000411  00000-0  58207-4 0  9991
2 31598  97.8861 237.3316 0001307  87.4745 272.6625 14.82152350687505
GENESIS 2               
1 31789U 07028A   20052.30167270  .00000457  00000-0  32786-4 0  9996
2 31789  64.5044   6.0741 0048424 258.1002 101.4689 15.17162457697393
COSMOS 2428             
1 31792U 07029A   20052.56442241 -.00000246  00000-0 -10727-3 0  9991
2 31792  70.9250 158.3857 0009346 255.0207 104.9879 14.12386083652273
SL-16 R/B               
1 31793U 07029B   20052.52050059 -.00000300  00000-0 -13175-3 0  9991
2 31793  70.9762 131.9967 0002224 270.4242 179.5926 14.14425321653159
KORONAS-FOTON           
1 33504U 09003A   20052.31236584  .00000231  00000-0  10477-4 0  9997
2 33504  82.4448 339.3764 0018304 328.9161  31.0986 15.15574144609647
H-2A R/B                
1 38341U 12025E   20052.39781243  .00000180  00000-0  28744-4 0  9993
2 38341  98.4809 199.9608 0054498 247.5734 111.9700 14.83986376420081
CUSAT 2 & FALCON 9 R/B  
1 39271U 13055G   20052.50570166  .00005147  00000-0  12382-3 0  9991
2 39271  80.9664  32.6726 0593516 161.5268 200.8528 14.46912788333814
SL-4 R/B                
1 39679U 14021B   20052.08537211 -.00000022  00000-0  17139-4 0  9998
2 39679  51.6169 292.0487 0171641 259.0460  99.1158 15.06301241321330
ALOS-2                  
1 39766U 14029A   20052.50632746  .00000097  00000-0  19885-4 0  9990
2 39766  97.9208 150.7896 0001418  89.0228 271.1154 14.79472760310403
SL-27 R/B               
1 40354U 14084B   20052.59856477  .00000905  00000-0  23427-4 0  9999
2 40354  74.7365 269.8149 0037483 159.9177 200.3520 15.40037177290146
YAOGAN 29               
1 41038U 15069A   20052.57844005 -.00000022  00000-0  40128-5 0  9994
2 41038  98.0016  40.8047 0000639  54.3312 305.7953 14.80435843228982
ASTRO-H (HITOMI)        
1 41337U 16012A   20052.37549866  .00000271  00000-0  15047-4 0  9996
2 41337  31.0069  32.0696 0012366 353.9185   6.1298 14.98653091219922
SHENZHOU-11 MODULE      
1 41868U 16061G   20052.57578295  .00028117  84901-5  10246-3 0  9990
2 41868  42.7897 149.4425 0011254  16.0743  70.4350 15.89158163187427
HXMT (HUIYAN)           
1 42758U 17034A   20052.22719645  .00000174  00000-0  24604-4 0  9998
2 42758  43.0203 319.0555 0011360   3.4768 132.8323 15.08759206148162
CZ-2C R/B               
1 43521U 18054D   20052.52330931  .00000738  00000-0  42177-4 0  9991
2 43521  35.1529 180.5289 0082687 166.8568 193.4323 15.10890537 91459
AEOLUS                  
1 43600U 18066A   20052.56600174  .00036003  00000-0  14122-3 0  9997
2 43600  96.7214  60.7013 0006103  82.3688 277.8278 15.86855466 86836
SAOCOM 1A               
1 43641U 18076A   20052.49020963  .00000001  00000-0  66793-5 0  9999
2 43641  97.8866 240.2712 0001401  81.0853 279.0524 14.82159005 74277
CREW DRAGON DEMO-1 DEB  
1 44064U 19011B   20052.50991884  .00014656  00000-0  16884-3 0  9995
2 44064  51.6370 183.8088 0003235 343.9231  16.1767 15.62216010 54614
